[{"OBJECT_NAME":"STARLINK-5882","OBJECT_ID":"2023-037Y","EPOCH":"2026-03-09T22:23:02.042592","MEAN_MOTION":14.98335627,"ECCENTRICITY":0.00024936,"INCLINATION":69.9989,"RA_OF_ASC_NODE":263.6765,"ARG_OF_PERICENTER":273.774,"MEAN_ANOMALY":86.3134,"EPHEMERIS_TYPE":0,"CLASSIFICATION_TYPE":"U","NORAD_CAT_ID":55936,"ELEMENT_SET_NO":999,"REV_AT_EPOCH":16451,"BSTAR":-5.538674e-6,"MEAN_MOTION_DOT":-1.59e-6,"MEAN_MOTION_DDOT":0},{"OBJECT_NAME":"BRO-15","OBJECT_ID":"2024-149CP","EPOCH":"2026-03-09T18:52:33.918816","MEAN_MOTION":14.95892184,"ECCENTRICITY":0.00093198,"INCLINATION":97.6864,"RA_OF_ASC_NODE":146.0377,"ARG_OF_PERICENTER":65.4416,"MEAN_ANOMALY":294.7775,"EPHEMERIS_TYPE":0,"CLASSIFICATION_TYPE":"U","NORAD_CAT_ID":60553,"ELEMENT_SET_NO":999,"REV_AT_EPOCH":8514,"BSTAR":7.8021491e-5,"MEAN_MOTION_DOT":8.16e-6,"MEAN_MOTION_DDOT":0}]
